{"type": "FeatureCollection", "features": [ {"type": "Feature", "properties": {"norad_id": 30295, "name": "FENGYUN 1C DEB", "group": "fengyun-1c-debris", "lat": 43.51506423308883, "lon": -152.97963650631567, "alt_km": 794.7639875908753, "timestamp": "2025-12-22T16:55:17.738450+00:00", "meta": {"OBJECT_NAME": "FENGYUN 1C DEB", "OBJECT_ID": "1999-025ZG", "EPOCH": "2025-12-21T18:38:47.696352", "MEAN_MOTION": 14.25050898, "ECCENTRICITY": 0.00942984, "INCLINATION": 98.5075, "RA_OF_ASC_NODE": 17.9502, "ARG_OF_PERICENTER": 56.3562, "MEAN_ANOMALY": 359.6287, "EPHEMERIS_TYPE": 0, "CLASSIFICATION_TYPE": "U", "NORAD_CAT_ID": 30295, "ELEMENT_SET_NO": 999, "REV_AT_EPOCH": 98305, "BSTAR": 0.00013275257, "MEAN_MOTION_DOT": 2.84e-06, "MEAN_MOTION_DDOT": 0}, "tle": {"line1": "1 30295U 99025ZG  25355.77694093  .00000284  00000+0  13275-3 0  9993", "line2": "2 30295  98.5075  17.9502 0094298  56.3562 359.6287 14.25050898983055"}}, "geometry": {"type": "Point", "coordinates": [-152.97963650631567, 43.51506423308883]}}, {"type": "Feature", "properties": {"norad_id": 30297, "name": "FENGYUN 1C DEB", "group": "fengyun-1c-debris", "lat": -42.04432412912338, "lon": -43.68490073492098, "alt_km": 992.8484980653748, "timestamp": "2025-12-22T16:55:17.738461+00:00", "meta": {"OBJECT_NAME": "FENGYUN 1C DEB", "OBJECT_ID": "1999-025ZJ", "EPOCH": "2025-12-22T03:40:41.103264", "MEAN_MOTION": 14.218955, "ECCENTRICITY": 0.03797444, "INCLINATION": 98.8132, "RA_OF_ASC_NODE": 307.7198, "ARG_OF_PERICENTER": 88.474, "MEAN_ANOMALY": 289.3269, "EPHEMERIS_TYPE": 0, "CLASSIFICATION_TYPE": "U", "NORAD_CAT_ID": 30297, "ELEMENT_SET_NO": 999, "REV_AT_EPOCH": 95286, "BSTAR": 0.0014853729, "MEAN_MOTION_DOT": 6.83e-05, "MEAN_MOTION_DDOT": 0}, "tle": {"line1": "1 30297U 99025ZJ  25356.15325351  .00006830  00000+0  14854-2 0  9992", "line2": "2 30297  98.8132 307.7198 0379744  88.4740 289.3269 14.21895500952868"}}, "geometry": {"type": "Point", "coordinates": [-43.68490073492098, -42.04432412912338]}}, {"type": "Feature", "properties": {"norad_id": 30298, "name": "FENGYUN 1C DEB", "group": "fengyun-1c-debris", "lat": -42.23878184271284, "lon": 96.08804137947521, "alt_km": 859.1958835749138, "timestamp": "2025-12-22T16:55:17.738471+00:00", "meta": {"OBJECT_NAME": "FENGYUN 1C DEB", "OBJECT_ID": "1999-025ZK", "EPOCH": "2025-12-22T05:25:30.332928", "MEAN_MOTION": 14.2000508, "ECCENTRICITY": 0.00476133, "INCLINATION": 99.0015, "RA_OF_ASC_NODE": 87.3259, "ARG_OF_PERICENTER": 101.5085, "MEAN_ANOMALY": 288.6227, "EPHEMERIS_TYPE": 0, "CLASSIFICATION_TYPE": "U", "NORAD_CAT_ID": 30298, "ELEMENT_SET_NO": 999, "REV_AT_EPOCH": 96969, "BSTAR": 0.0016935742, "MEAN_MOTION_DOT": 3.599e-05, "MEAN_MOTION_DDOT": 0}, "tle": {"line1": "1 30298U 99025ZK  25356.22604552  .00003599  00000+0  16936-2 0  9996", "line2": "2 30298  99.0015  87.3259 0047613 101.5085 288.6227 14.20005080969697"}}, "geometry": {"type": "Point", "coordinates": [96.08804137947521, -42.23878184271284]}}, {"type": "Feature", "properties": {"norad_id": 30299, "name": "FENGYUN 1C DEB", "group": "fengyun-1c-debris", "lat": 75.80334836752176, "lon": -71.7165282658838, "alt_km": 897.8807641975664, "timestamp": "2025-12-22T16:55:17.738481+00:00", "meta": {"OBJECT_NAME": "FENGYUN 1C DEB", "OBJECT_ID": "1999-025ZL", "EPOCH": "2025-12-22T03:10:01.329312", "MEAN_MOTION": 14.07792079, "ECCENTRICITY": 0.01031137, "INCLINATION": 99.0934, "RA_OF_ASC_NODE": 68.4281, "ARG_OF_PERICENTER": 341.2932, "MEAN_ANOMALY": 95.6793, "EPHEMERIS_TYPE": 0, "CLASSIFICATION_TYPE": "U", "NORAD_CAT_ID": 30299, "ELEMENT_SET_NO": 999, "REV_AT_EPOCH": 96422, "BSTAR": 0.001334658, "MEAN_MOTION_DOT": 2.328e-05, "MEAN_MOTION_DDOT": 0}, "tle": {"line1": "1 30299U 99025ZL  25356.13195983  .00002328  00000+0  13347-2 0  9992", "line2": "2 30299  99.0934  68.4281 0103113 341.2932  95.6793 14.07792079964229"}}, "geometry": {"type": "Point", "coordinates": [-71.7165282658838, 75.80334836752176]}}, {"type": "Feature", "properties": {"norad_id": 30300, "name": "FENGYUN 1C DEB", "group": "fengyun-1c-debris", "lat": -55.968395598419214, "lon": -127.26277831056589, "alt_km": 761.1279691749478, "timestamp": "2025-12-22T16:55:17.738491+00:00", "meta": {"OBJECT_NAME": "FENGYUN 1C DEB", "OBJECT_ID": "1999-025ZM", "EPOCH": "2025-12-19T03:48:05.188896", "MEAN_MOTION": 14.26899681, "ECCENTRICITY": 0.00756002, "INCLINATION": 99.0404, "RA_OF_ASC_NODE": 62.7103, "ARG_OF_PERICENTER": 275.4697, "MEAN_ANOMALY": 113.2793, "EPHEMERIS_TYPE": 0, "CLASSIFICATION_TYPE": "U", "NORAD_CAT_ID": 30300, "ELEMENT_SET_NO": 999, "REV_AT_EPOCH": 97076, "BSTAR": 0.0016293339, "MEAN_MOTION_DOT": 4.032e-05, "MEAN_MOTION_DDOT": 0}, "tle": {"line1": "1 30300U 99025ZM  25353.15839339  .00004032  00000+0  16293-2 0  9991", "line2": "2 30300  99.0404  62.7103 0075600 275.4697 113.2793 14.26899681970760"}}, "geometry": {"type": "Point", "coordinates": [-127.26277831056589, -55.968395598419214]}}, {"type": "Feature", "properties": {"norad_id": 30301, "name": "FENGYUN 1C DEB", "group": "fengyun-1c-debris", "lat": -74.55750869603101, "lon": -65.24923030288683, "alt_km": 673.0609663240002, "timestamp": "2025-12-22T16:55:17.738501+00:00", "meta": {"OBJECT_NAME": "FENGYUN 1C DEB", "OBJECT_ID": "1999-025ZN", "EPOCH": "2025-12-22T04:59:24.448704", "MEAN_MOTION": 14.53279669, "ECCENTRICITY": 0.00693165, "INCLINATION": 98.635, "RA_OF_ASC_NODE": 147.6123, "ARG_OF_PERICENTER": 260.9294, "MEAN_ANOMALY": 276.7574, "EPHEMERIS_TYPE": 0, "CLASSIFICATION_TYPE": "U", "NORAD_CAT_ID": 30301, "ELEMENT_SET_NO": 999, "REV_AT_EPOCH": 97354, "BSTAR": 0.0047935014, "MEAN_MOTION_DOT": 0.00020545, "MEAN_MOTION_DDOT": 0}, "tle": {"line1": "1 30301U 99025ZN  25356.20792186  .00020545  00000+0  47935-2 0  9993", "line2": "2 30301  98.6350 147.6123 0069316 260.9294 276.7574 14.53279669973549"}}, "geometry": {"type": "Point", "coordinates": [-65.24923030288683, -74.55750869603101]}}, {"type": "Feature", "properties": {"norad_id": 30302, "name": "FENGYUN 1C DEB", "group": "fengyun-1c-debris", "lat": -1.8497065752071542, "lon": -95.76031145618848, "alt_km": 852.9259132551815, "timestamp": "2025-12-22T16:55:17.738512+00:00", "meta": {"OBJECT_NAME": "FENGYUN 1C DEB", "OBJECT_ID": "1999-025ZP", "EPOCH": "2025-12-21T00:08:21.553728", "MEAN_MOTION": 14.12863052, "ECCENTRICITY": 0.01055559, "INCLINATION": 98.5542, "RA_OF_ASC_NODE": 262.3375, "ARG_OF_PERICENTER": 93.8721, "MEAN_ANOMALY": 267.4528, "EPHEMERIS_TYPE": 0, "CLASSIFICATION_TYPE": "U", "NORAD_CAT_ID": 30302, "ELEMENT_SET_NO": 999, "REV_AT_EPOCH": 96160, "BSTAR": 0.0013252255, "MEAN_MOTION_DOT": 2.559e-05, "MEAN_MOTION_DDOT": 0}, "tle": {"line1": "1 30302U 99025ZP  25355.00580502  .00002559  00000+0  13252-2 0  9998", "line2": "2 30302  98.5542 262.3375 0105555  93.8721 267.4528 14.12863052961600"}}, "geometry": {"type": "Point", "coordinates": [-95.76031145618848, -1.8497065752071542]}}, {"type": "Feature", "properties": {"norad_id": 30303, "name": "FENGYUN 1C DEB", "group": "fengyun-1c-debris", "lat": 50.7251688433361, "lon": 63.09715228869436, "alt_km": 852.2868180169098, "timestamp": "2025-12-22T16:55:17.738522+00:00", "meta": {"OBJECT_NAME": "FENGYUN 1C DEB", "OBJECT_ID": "1999-025ZQ", "EPOCH": "2025-12-22T04:53:22.320384", "MEAN_MOTION": 14.25925997, "ECCENTRICITY": 0.00777668, "INCLINATION": 99.0206, "RA_OF_ASC_NODE": 73.7826, "ARG_OF_PERICENTER": 255.3975, "MEAN_ANOMALY": 103.8571, "EPHEMERIS_TYPE": 0, "CLASSIFICATION_TYPE": "U", "NORAD_CAT_ID": 30303, "ELEMENT_SET_NO": 999, "REV_AT_EPOCH": 97170, "BSTAR": 0.0025096843, "MEAN_MOTION_DOT": 6.131e-05, "MEAN_MOTION_DDOT": 0}, "tle": {"line1": "1 30303U 99025ZQ  25356.20373056  .00006131  00000+0  25097-2 0  9996", "line2": "2 30303  99.0206  73.7826 0077766 255.3975 103.8571 14.25925997971701"}}, "geometry": {"type": "Point", "coordinates": [63.09715228869436, 50.7251688433361]}}, {"type": "Feature", "properties": {"norad_id": 30304, "name": "FENGYUN 1C DEB", "group": "fengyun-1c-debris", "lat": -17.678262948564775, "lon": -113.64110843484137, "alt_km": 898.2729429743194, "timestamp": "2025-12-22T16:55:17.738532+00:00", "meta": {"OBJECT_NAME": "FENGYUN 1C DEB", "OBJECT_ID": "1999-025ZR", "EPOCH": "2025-12-18T10:12:26.700192", "MEAN_MOTION": 14.15523113, "ECCENTRICITY": 0.00734007, "INCLINATION": 99.0328, "RA_OF_ASC_NODE": 64.9301, "ARG_OF_PERICENTER": 32.7527, "MEAN_ANOMALY": 327.8165, "EPHEMERIS_TYPE": 0, "CLASSIFICATION_TYPE": "U", "NORAD_CAT_ID": 30304, "ELEMENT_SET_NO": 999, "REV_AT_EPOCH": 96899, "BSTAR": 0.0011981926, "MEAN_MOTION_DOT": 2.359e-05, "MEAN_MOTION_DDOT": 0}, "tle": {"line1": "1 30304U 99025ZR  25352.42530903  .00002359  00000+0  11982-2 0  9999", "line2": "2 30304  99.0328  64.9301 0073400  32.7527 327.8165 14.15523113968995"}}, "geometry": {"type": "Point", "coordinates": [-113.64110843484137, -17.678262948564775]}}, {"type": "Feature", "properties": {"norad_id": 30305, "name": "FENGYUN 1C DEB", "group": "fengyun-1c-debris", "lat": 71.55901394070328, "lon": 142.44737444070736, "alt_km": 858.0587936835254, "timestamp": "2025-12-22T16:55:17.738543+00:00", "meta": {"OBJECT_NAME": "FENGYUN 1C DEB", "OBJECT_ID": "1999-025ZS", "EPOCH": "2025-12-22T02:57:11.476800", "MEAN_MOTION": 13.60235444, "ECCENTRICITY": 0.0265851, "INCLINATION": 98.5887, "RA_OF_ASC_NODE": 294.9855, "ARG_OF_PERICENTER": 76.593, "MEAN_ANOMALY": 59.6759, "EPHEMERIS_TYPE": 0, "CLASSIFICATION_TYPE": "U", "NORAD_CAT_ID": 30305, "ELEMENT_SET_NO": 999, "REV_AT_EPOCH": 93901, "BSTAR": 0.00031635212, "MEAN_MOTION_DOT": 2.65e-06, "MEAN_MOTION_DDOT": 0}, "tle": {"line1": "1 30305U 99025ZS  25356.12304950  .00000265  00000+0  31635-3 0  9994", "line2": "2 30305  98.5887 294.9855 0265851  76.5930  59.6759 13.60235444939012"}}, "geometry": {"type": "Point", "coordinates": [142.44737444070736, 71.55901394070328]}}]}